SKYKRAFT-1A             
1 55054U 23001AX  26068.71064616  .00008177  00000+0  30069-3 0  9991
2 55054  97.3349 127.6290 0011277 121.5092 238.7251 15.28083228176529
STARLINK-34150          
1 63998U 25101E   26068.17269884  .00035860  00000+0  13070-2 0  9995
2 63998  43.0019   1.1076 0000695 271.6630  88.4142 15.27562634 46978
